[{"OBJECT_NAME":"STARLINK-35131","OBJECT_ID":"2025-235T","EPOCH":"2026-03-09T16:59:42.373248","MEAN_MOTION":15.30199624,"ECCENTRICITY":0.00010683,"INCLINATION":53.1578,"RA_OF_ASC_NODE":245.2262,"ARG_OF_PERICENTER":46.1174,"MEAN_ANOMALY":313.9915,"EPHEMERIS_TYPE":0,"CLASSIFICATION_TYPE":"U","NORAD_CAT_ID":66075,"ELEMENT_SET_NO":999,"REV_AT_EPOCH":2292,"BSTAR":0.0005599778,"MEAN_MOTION_DOT":0.00016262,"MEAN_MOTION_DDOT":0},{"OBJECT_NAME":"CZ-2C R\/B","OBJECT_ID":"2017-085D","EPOCH":"2026-03-09T07:36:19.955232","MEAN_MOTION":15.36259494,"ECCENTRICITY":0.00550258,"INCLINATION":34.6583,"RA_OF_ASC_NODE":163.0948,"ARG_OF_PERICENTER":204.4819,"MEAN_ANOMALY":155.3278,"EPHEMERIS_TYPE":0,"CLASSIFICATION_TYPE":"U","NORAD_CAT_ID":43084,"ELEMENT_SET_NO":999,"REV_AT_EPOCH":45326,"BSTAR":0.00049058122,"MEAN_MOTION_DOT":0.00018774,"MEAN_MOTION_DDOT":0}]
